{"fetched_at":"2026-07-13T07:48:16.899Z","source":"https://celestrak.org/NORAD/elements/gp.php?NAME=GHGSAT&FORMAT=JSON","constellation":"ghgsat","records":[{"OBJECT_NAME":"GHGSAT-C1","OBJECT_ID":"2020-061G","EPOCH":"2026-07-12T19:27:49.294944","CLASSIFICATION_TYPE":"U","MEAN_MOTION":15.73313642,"ECCENTRICITY":0.0000916,"INCLINATION":97.2102,"RA_OF_ASC_NODE":279.8112,"ARG_OF_PERICENTER":177.0563,"MEAN_ANOMALY":183.0707,"EPHEMERIS_TYPE":0,"NORAD_CAT_ID":46278,"ELEMENT_SET_NO":999,"REV_AT_EPOCH":32750,"BSTAR":0.00022479,"MEAN_MOTION_DOT":0.00030922,"MEAN_MOTION_DDOT":0},{"OBJECT_NAME":"GHGSAT-C2","OBJECT_ID":"2021-006DA","EPOCH":"2026-07-12T15:42:47.437344","CLASSIFICATION_TYPE":"U","MEAN_MOTION":15.38088939,"ECCENTRICITY":0.0006792,"INCLINATION":97.2138,"RA_OF_ASC_NODE":240.4847,"ARG_OF_PERICENTER":82.3949,"MEAN_ANOMALY":277.8068,"EPHEMERIS_TYPE":0,"NORAD_CAT_ID":47509,"ELEMENT_SET_NO":999,"REV_AT_EPOCH":30376,"BSTAR":0.00010374,"MEAN_MOTION_DOT":0.0000381,"MEAN_MOTION_DDOT":0},{"OBJECT_NAME":"GHGSAT-C3","OBJECT_ID":"2022-057F","EPOCH":"2026-07-12T20:47:35.410848","CLASSIFICATION_TYPE":"U","MEAN_MOTION":15.34661656,"ECCENTRICITY":0.0006505,"INCLINATION":97.6622,"RA_OF_ASC_NODE":340.4943,"ARG_OF_PERICENTER":42.5336,"MEAN_ANOMALY":317.6409,"EPHEMERIS_TYPE":0,"NORAD_CAT_ID":52737,"ELEMENT_SET_NO":999,"REV_AT_EPOCH":22947,"BSTAR":0.00012212,"MEAN_MOTION_DOT":0.00004018,"MEAN_MOTION_DDOT":0},{"OBJECT_NAME":"GHGSAT-C5","OBJECT_ID":"2022-057N","EPOCH":"2026-07-12T20:10:18.190848","CLASSIFICATION_TYPE":"U","MEAN_MOTION":15.3463882,"ECCENTRICITY":0.0007196,"INCLINATION":97.6708,"RA_OF_ASC_NODE":342.071,"ARG_OF_PERICENTER":39.599,"MEAN_ANOMALY":320.5777,"EPHEMERIS_TYPE":0,"NORAD_CAT_ID":52744,"ELEMENT_SET_NO":999,"REV_AT_EPOCH":22947,"BSTAR":0.00012807,"MEAN_MOTION_DOT":0.00004215,"MEAN_MOTION_DDOT":0},{"OBJECT_NAME":"GHGSAT-C4","OBJECT_ID":"2022-057Q","EPOCH":"2026-07-12T21:17:24.284832","CLASSIFICATION_TYPE":"U","MEAN_MOTION":15.34649609,"ECCENTRICITY":0.0006374,"INCLINATION":97.6549,"RA_OF_ASC_NODE":339.321,"ARG_OF_PERICENTER":27.0969,"MEAN_ANOMALY":333.0605,"EPHEMERIS_TYPE":0,"NORAD_CAT_ID":52746,"ELEMENT_SET_NO":999,"REV_AT_EPOCH":22948,"BSTAR":0.00012997,"MEAN_MOTION_DOT":0.0000428,"MEAN_MOTION_DDOT":0},{"OBJECT_NAME":"GHGSAT-C8","OBJECT_ID":"2023-054J","EPOCH":"2026-07-12T20:44:28.862880","CLASSIFICATION_TYPE":"U","MEAN_MOTION":15.53725943,"ECCENTRICITY":0.0003253,"INCLINATION":97.2969,"RA_OF_ASC_NODE":103.5356,"ARG_OF_PERICENTER":10.9083,"MEAN_ANOMALY":349.2241,"EPHEMERIS_TYPE":0,"NORAD_CAT_ID":56186,"ELEMENT_SET_NO":999,"REV_AT_EPOCH":18242,"BSTAR":0.00019571,"MEAN_MOTION_DOT":0.00012433,"MEAN_MOTION_DDOT":0},{"OBJECT_NAME":"GHGSAT-C6","OBJECT_ID":"2023-054AC","EPOCH":"2026-07-12T19:55:46.713792","CLASSIFICATION_TYPE":"U","MEAN_MOTION":15.53701528,"ECCENTRICITY":0.000368,"INCLINATION":97.3032,"RA_OF_ASC_NODE":104.2023,"ARG_OF_PERICENTER":319.952,"MEAN_ANOMALY":40.1462,"EPHEMERIS_TYPE":0,"NORAD_CAT_ID":56204,"ELEMENT_SET_NO":999,"REV_AT_EPOCH":18243,"BSTAR":0.00017971,"MEAN_MOTION_DOT":0.00011397,"MEAN_MOTION_DDOT":0},{"OBJECT_NAME":"GHGSAT-C7","OBJECT_ID":"2023-054AH","EPOCH":"2026-07-12T19:46:35.311584","CLASSIFICATION_TYPE":"U","MEAN_MOTION":15.50412889,"ECCENTRICITY":0.0005174,"INCLINATION":97.298,"RA_OF_ASC_NODE":102.5272,"ARG_OF_PERICENTER":315.4611,"MEAN_ANOMALY":44.6224,"EPHEMERIS_TYPE":0,"NORAD_CAT_ID":56209,"ELEMENT_SET_NO":999,"REV_AT_EPOCH":18236,"BSTAR":0.00013613,"MEAN_MOTION_DOT":0.00007647,"MEAN_MOTION_DDOT":0},{"OBJECT_NAME":"GHGSAT-C12","OBJECT_ID":"2025-135B","EPOCH":"2026-07-12T18:49:58.918080","CLASSIFICATION_TYPE":"U","MEAN_MOTION":15.20436756,"ECCENTRICITY":0.0006454,"INCLINATION":97.4769,"RA_OF_ASC_NODE":308.3693,"ARG_OF_PERICENTER":87.7566,"MEAN_ANOMALY":272.4408,"EPHEMERIS_TYPE":0,"NORAD_CAT_ID":64529,"ELEMENT_SET_NO":999,"REV_AT_EPOCH":5871,"BSTAR":0.000098832,"MEAN_MOTION_DOT":0.00002087,"MEAN_MOTION_DDOT":0},{"OBJECT_NAME":"GHGSAT-C13","OBJECT_ID":"2025-135W","EPOCH":"2026-07-12T18:34:29.559936","CLASSIFICATION_TYPE":"U","MEAN_MOTION":15.21387284,"ECCENTRICITY":0.0001983,"INCLINATION":97.4799,"RA_OF_ASC_NODE":308.9694,"ARG_OF_PERICENTER":70.0199,"MEAN_ANOMALY":290.125,"EPHEMERIS_TYPE":0,"NORAD_CAT_ID":64548,"ELEMENT_SET_NO":999,"REV_AT_EPOCH":5874,"BSTAR":0.00014737,"MEAN_MOTION_DOT":0.00003234,"MEAN_MOTION_DDOT":0}]}
