GHGSAT-C1               
1 46278U 20061G   26193.81098721  .00030922  00000+0  22479-3 0  9995
2 46278  97.2102 279.8112 0000916 177.0563 183.0707 15.73313642327503
GHGSAT-C2               
1 47509U 21006DA  26193.65471571  .00003810  00000+0  10374-3 0  9990
2 47509  97.2138 240.4847 0006792  82.3949 277.8068 15.38088939303766
GHGSAT-C3               
1 52737U 22057F   26193.86638207  .00004018  00000+0  12212-3 0  9994
2 52737  97.6622 340.4943 0006505  42.5336 317.6409 15.34661656229471
GHGSAT-C5               
1 52744U 22057N   26193.84048832  .00004215  00000+0  12807-3 0  9998
2 52744  97.6708 342.0710 0007196  39.5990 320.5777 15.34638820229471
GHGSAT-C4               
1 52746U 22057Q   26193.88708663  .00004280  00000+0  12997-3 0  9991
2 52746  97.6549 339.3210 0006374  27.0969 333.0605 15.34649609229482
GHGSAT-C8               
1 56186U 23054J   26193.86422295  .00012433  00000+0  19571-3 0  9997
2 56186  97.2969 103.5356 0003253  10.9083 349.2241 15.53725943182423
GHGSAT-C6               
1 56204U 23054AC  26193.83040178  .00011397  00000+0  17971-3 0  9991
2 56204  97.3032 104.2023 0003680 319.9520  40.1462 15.53701528182433
GHGSAT-C7               
1 56209U 23054AH  26193.82401981  .00007647  00000+0  13613-3 0  9990
2 56209  97.2980 102.5272 0005174 315.4611  44.6224 15.50412889182361
GHGSAT-C12              
1 64529U 25135B   26193.78470970  .00002087  00000+0  98832-4 0  9995
2 64529  97.4769 308.3693 0006454  87.7566 272.4408 15.20436756 58717
GHGSAT-C13              
1 64548U 25135W   26193.77395324  .00003234  00000+0  14737-3 0  9990
2 64548  97.4799 308.9694 0001983  70.0199 290.1250 15.21387284 58744
